[{"OBJECT_NAME":"STARLINK-3244","OBJECT_ID":"2021-115T","EPOCH":"2026-03-09T11:38:00.402432","MEAN_MOTION":15.08838653,"ECCENTRICITY":0.00015251,"INCLINATION":53.2179,"RA_OF_ASC_NODE":150.0538,"ARG_OF_PERICENTER":82.8831,"MEAN_ANOMALY":277.2335,"EPHEMERIS_TYPE":0,"CLASSIFICATION_TYPE":"U","NORAD_CAT_ID":49741,"ELEMENT_SET_NO":999,"REV_AT_EPOCH":23550,"BSTAR":-2.9319888e-5,"MEAN_MOTION_DOT":-7.55e-6,"MEAN_MOTION_DDOT":0},{"OBJECT_NAME":"NOAA 17 DEB","OBJECT_ID":"2002-032DT","EPOCH":"2026-03-08T22:47:54.624192","MEAN_MOTION":15.08678856,"ECCENTRICITY":0.0018728,"INCLINATION":98.77,"RA_OF_ASC_NODE":121.3607,"ARG_OF_PERICENTER":298.7191,"MEAN_ANOMALY":61.2152,"EPHEMERIS_TYPE":0,"CLASSIFICATION_TYPE":"U","NORAD_CAT_ID":49489,"ELEMENT_SET_NO":999,"REV_AT_EPOCH":24229,"BSTAR":0.0068247859,"MEAN_MOTION_DOT":0.00108865,"MEAN_MOTION_DDOT":0}]
